AMC-3                   
1 24936U 97050A   26095.21646103 -.00000259  00000+0  00000+0 0  9995
2 24936   7.9683  64.9056 0003346 310.7113 183.8227  1.00271221 51701
NSS-11                  
1 26554U 00059A   26095.20937937  .00000027  00000+0  00000+0 0  9995
2 26554   1.9382  82.2331 0003154 296.1336  66.5183  1.00271891 40562
AMC-6                   
1 26580U 00067A   26095.15114208  .00000090  00000+0  00000+0 0  9995
2 26580   0.0633  58.9085 0003916 332.5468  81.3550  1.00264261 93163
AMC-11                  
1 28252U 04017A   26095.00987831 -.00000049  00000+0  00000+0 0  9991
2 28252   0.1214  80.2149 0003314 304.5603  61.0031  1.00273119 80121
AMC-15                  
1 28446U 04041A   26095.15738959 -.00000088  00000+0  00000+0 0  9997
2 28446   0.0513  52.1822 0002240 325.1087 127.7874  1.00272400 78578
NSS-10                  
1 28526U 05003A   26095.23840985 -.00000248  00000+0  00000+0 0  9995
2 28526   6.2676  71.3232 0003244 303.3242 227.2739  1.00271810 52425
ASTRA 1KR               
1 29055U 06012A   26095.22267174  .00000120  00000+0  00000+0 0  9994
2 29055   0.2855  82.1610 0003596 290.4179 280.0989  1.00270928 44964
ASTRA 1L                
1 31306U 07016A   26095.22909384 -.00000183  00000+0  00000+0 0  9997
2 31306   1.1332  82.0815 0004415 311.7592 217.6446  1.00272680 44252
ASTRA 4A                
1 32299U 07057A   26095.22822667  .00000033  00000+0  00000+0 0  9995
2 32299   0.0517  58.4341 0002679 326.7553 255.3067  1.00271091 50914
ASTRA 1M                
1 33436U 08057A   26095.24967657  .00000122  00000+0  00000+0 0  9990
2 33436   0.1101  75.2894 0002990 356.4697 231.0392  1.00272492 45005
NSS-9                   
1 33749U 09008A   26095.13952576  .00000073  00000+0  00000+0 0  9991
2 33749   1.0728  83.2975 0002227 285.1619  58.2730  1.00272535 62788
SES-7 (PROTOSTAR 2)     
1 34941U 09027A   26095.26726998 -.00000344  00000+0  00000+0 0  9990
2 34941   0.0916  78.4525 0001915 244.1627  75.4209  1.00272241 61892
NSS-12                  
1 36032U 09058A   26095.18580595  .00000073  00000+0  00000+0 0  9997
2 36032   0.0747  62.1256 0005038 297.7373 317.5154  1.00271692 60189
SES-1                   
1 36516U 10016A   26095.22584610 -.00000113  00000+0  00000+0 0  9993
2 36516   0.0273 284.4363 0002632  93.1985 156.1926  1.00272985 58303
ASTRA 3B                
1 36581U 10021A   26095.21711404  .00000139  00000+0  00000+0 0  9990
2 36581   1.2807  84.4212 0003604 306.6544 264.0918  1.00272757 58133
SES-3                   
1 37748U 11035A   26095.08284552 -.00000100  00000+0  00000+0 0  9995
2 37748   1.1374  83.8433 0003419 296.0830 100.2815  1.00272304 53869
ASTRA 1N                
1 37775U 11041A   26095.24958991  .00000121  00000+0  00000+0 0  9997
2 37775   0.0889  42.8187 0005115 359.4770 260.2868  1.00270097 43794
