[{"OBJECT_NAME":"AMC-3","OBJECT_ID":"1997-050A","EPOCH":"2026-04-05T05:11:42.232992","MEAN_MOTION":1.00271221,"ECCENTRICITY":0.00033468,"INCLINATION":7.9683,"RA_OF_ASC_NODE":64.9056,"ARG_OF_PERICENTER":310.7113,"MEAN_ANOMALY":183.8227,"EPHEMERIS_TYPE":0,"CLASSIFICATION_TYPE":"U","NORAD_CAT_ID":24936,"ELEMENT_SET_NO":999,"REV_AT_EPOCH":5170,"BSTAR":0,"MEAN_MOTION_DOT":-2.59e-6,"MEAN_MOTION_DDOT":0},{"OBJECT_NAME":"NSS-11","OBJECT_ID":"2000-059A","EPOCH":"2026-04-05T05:01:30.377568","MEAN_MOTION":1.00271891,"ECCENTRICITY":0.00031541,"INCLINATION":1.9382,"RA_OF_ASC_NODE":82.2331,"ARG_OF_PERICENTER":296.1336,"MEAN_ANOMALY":66.5183,"EPHEMERIS_TYPE":0,"CLASSIFICATION_TYPE":"U","NORAD_CAT_ID":26554,"ELEMENT_SET_NO":999,"REV_AT_EPOCH":4056,"BSTAR":0,"MEAN_MOTION_DOT":2.7e-7,"MEAN_MOTION_DDOT":0},{"OBJECT_NAME":"AMC-6","OBJECT_ID":"2000-067A","EPOCH":"2026-04-05T03:37:38.675712","MEAN_MOTION":1.00264261,"ECCENTRICITY":0.00039166,"INCLINATION":0.0633,"RA_OF_ASC_NODE":58.9085,"ARG_OF_PERICENTER":332.5468,"MEAN_ANOMALY":81.355,"EPHEMERIS_TYPE":0,"CLASSIFICATION_TYPE":"U","NORAD_CAT_ID":26580,"ELEMENT_SET_NO":999,"REV_AT_EPOCH":9316,"BSTAR":0,"MEAN_MOTION_DOT":9.0e-7,"MEAN_MOTION_DDOT":0},{"OBJECT_NAME":"AMC-11","OBJECT_ID":"2004-017A","EPOCH":"2026-04-05T00:14:13.485984","MEAN_MOTION":1.00273119,"ECCENTRICITY":0.00033146,"INCLINATION":0.1214,"RA_OF_ASC_NODE":80.2149,"ARG_OF_PERICENTER":304.5603,"MEAN_ANOMALY":61.0031,"EPHEMERIS_TYPE":0,"CLASSIFICATION_TYPE":"U","NORAD_CAT_ID":28252,"ELEMENT_SET_NO":999,"REV_AT_EPOCH":8012,"BSTAR":0,"MEAN_MOTION_DOT":-4.9e-7,"MEAN_MOTION_DDOT":0},{"OBJECT_NAME":"AMC-15","OBJECT_ID":"2004-041A","EPOCH":"2026-04-05T03:46:38.460576","MEAN_MOTION":1.002724,"ECCENTRICITY":0.00022405,"INCLINATION":0.0513,"RA_OF_ASC_NODE":52.1822,"ARG_OF_PERICENTER":325.1087,"MEAN_ANOMALY":127.7874,"EPHEMERIS_TYPE":0,"CLASSIFICATION_TYPE":"U","NORAD_CAT_ID":28446,"ELEMENT_SET_NO":999,"REV_AT_EPOCH":7857,"BSTAR":0,"MEAN_MOTION_DOT":-8.8e-7,"MEAN_MOTION_DDOT":0},{"OBJECT_NAME":"NSS-10","OBJECT_ID":"2005-003A","EPOCH":"2026-04-05T05:43:18.611040","MEAN_MOTION":1.0027181,"ECCENTRICITY":0.00032448,"INCLINATION":6.2676,"RA_OF_ASC_NODE":71.3232,"ARG_OF_PERICENTER":303.3242,"MEAN_ANOMALY":227.2739,"EPHEMERIS_TYPE":0,"CLASSIFICATION_TYPE":"U","NORAD_CAT_ID":28526,"ELEMENT_SET_NO":999,"REV_AT_EPOCH":5242,"BSTAR":0,"MEAN_MOTION_DOT":-2.48e-6,"MEAN_MOTION_DDOT":0},{"OBJECT_NAME":"ASTRA 1KR","OBJECT_ID":"2006-012A","EPOCH":"2026-04-05T05:20:38.838336","MEAN_MOTION":1.00270928,"ECCENTRICITY":0.0003596,"INCLINATION":0.2855,"RA_OF_ASC_NODE":82.161,"ARG_OF_PERICENTER":290.4179,"MEAN_ANOMALY":280.0989,"EPHEMERIS_TYPE":0,"CLASSIFICATION_TYPE":"U","NORAD_CAT_ID":29055,"ELEMENT_SET_NO":999,"REV_AT_EPOCH":4496,"BSTAR":0,"MEAN_MOTION_DOT":1.2e-6,"MEAN_MOTION_DDOT":0},{"OBJECT_NAME":"ASTRA 1L","OBJECT_ID":"2007-016A","EPOCH":"2026-04-05T05:29:53.707776","MEAN_MOTION":1.0027268,"ECCENTRICITY":0.00044152,"INCLINATION":1.1332,"RA_OF_ASC_NODE":82.0815,"ARG_OF_PERICENTER":311.7592,"MEAN_ANOMALY":217.6446,"EPHEMERIS_TYPE":0,"CLASSIFICATION_TYPE":"U","NORAD_CAT_ID":31306,"ELEMENT_SET_NO":999,"REV_AT_EPOCH":4425,"BSTAR":0,"MEAN_MOTION_DOT":-1.83e-6,"MEAN_MOTION_DDOT":0},{"OBJECT_NAME":"ASTRA 4A","OBJECT_ID":"2007-057A","EPOCH":"2026-04-05T05:28:38.784288","MEAN_MOTION":1.00271091,"ECCENTRICITY":0.00026799,"INCLINATION":0.0517,"RA_OF_ASC_NODE":58.4341,"ARG_OF_PERICENTER":326.7553,"MEAN_ANOMALY":255.3067,"EPHEMERIS_TYPE":0,"CLASSIFICATION_TYPE":"U","NORAD_CAT_ID":32299,"ELEMENT_SET_NO":999,"REV_AT_EPOCH":5091,"BSTAR":0,"MEAN_MOTION_DOT":3.3e-7,"MEAN_MOTION_DDOT":0},{"OBJECT_NAME":"ASTRA 1M","OBJECT_ID":"2008-057A","EPOCH":"2026-04-05T05:59:32.055648","MEAN_MOTION":1.00272492,"ECCENTRICITY":0.00029909,"INCLINATION":0.1101,"RA_OF_ASC_NODE":75.2894,"ARG_OF_PERICENTER":356.4697,"MEAN_ANOMALY":231.0392,"EPHEMERIS_TYPE":0,"CLASSIFICATION_TYPE":"U","NORAD_CAT_ID":33436,"ELEMENT_SET_NO":999,"REV_AT_EPOCH":4500,"BSTAR":0,"MEAN_MOTION_DOT":1.22e-6,"MEAN_MOTION_DDOT":0},{"OBJECT_NAME":"NSS-9","OBJECT_ID":"2009-008A","EPOCH":"2026-04-05T03:20:55.025664","MEAN_MOTION":1.00272535,"ECCENTRICITY":0.00022277,"INCLINATION":1.0728,"RA_OF_ASC_NODE":83.2975,"ARG_OF_PERICENTER":285.1619,"MEAN_ANOMALY":58.273,"EPHEMERIS_TYPE":0,"CLASSIFICATION_TYPE":"U","NORAD_CAT_ID":33749,"ELEMENT_SET_NO":999,"REV_AT_EPOCH":6278,"BSTAR":0,"MEAN_MOTION_DOT":7.3e-7,"MEAN_MOTION_DDOT":0},{"OBJECT_NAME":"SES-7 (PROTOSTAR 2)","OBJECT_ID":"2009-027A","EPOCH":"2026-04-05T06:24:52.126272","MEAN_MOTION":1.00272241,"ECCENTRICITY":0.00019152,"INCLINATION":0.0916,"RA_OF_ASC_NODE":78.4525,"ARG_OF_PERICENTER":244.1627,"MEAN_ANOMALY":75.4209,"EPHEMERIS_TYPE":0,"CLASSIFICATION_TYPE":"U","NORAD_CAT_ID":34941,"ELEMENT_SET_NO":999,"REV_AT_EPOCH":6189,"BSTAR":0,"MEAN_MOTION_DOT":-3.44e-6,"MEAN_MOTION_DDOT":0},{"OBJECT_NAME":"NSS-12","OBJECT_ID":"2009-058A","EPOCH":"2026-04-05T04:27:33.634080","MEAN_MOTION":1.00271692,"ECCENTRICITY":0.0005038,"INCLINATION":0.0747,"RA_OF_ASC_NODE":62.1256,"ARG_OF_PERICENTER":297.7373,"MEAN_ANOMALY":317.5154,"EPHEMERIS_TYPE":0,"CLASSIFICATION_TYPE":"U","NORAD_CAT_ID":36032,"ELEMENT_SET_NO":999,"REV_AT_EPOCH":6018,"BSTAR":0,"MEAN_MOTION_DOT":7.3e-7,"MEAN_MOTION_DDOT":0},{"OBJECT_NAME":"SES-1","OBJECT_ID":"2010-016A","EPOCH":"2026-04-05T05:25:13.103040","MEAN_MOTION":1.00272985,"ECCENTRICITY":0.00026328,"INCLINATION":0.0273,"RA_OF_ASC_NODE":284.4363,"ARG_OF_PERICENTER":93.1985,"MEAN_ANOMALY":156.1926,"EPHEMERIS_TYPE":0,"CLASSIFICATION_TYPE":"U","NORAD_CAT_ID":36516,"ELEMENT_SET_NO":999,"REV_AT_EPOCH":5830,"BSTAR":0,"MEAN_MOTION_DOT":-1.13e-6,"MEAN_MOTION_DDOT":0},{"OBJECT_NAME":"ASTRA 3B","OBJECT_ID":"2010-021A","EPOCH":"2026-04-05T05:12:38.653056","MEAN_MOTION":1.00272757,"ECCENTRICITY":0.0003604,"INCLINATION":1.2807,"RA_OF_ASC_NODE":84.4212,"ARG_OF_PERICENTER":306.6544,"MEAN_ANOMALY":264.0918,"EPHEMERIS_TYPE":0,"CLASSIFICATION_TYPE":"U","NORAD_CAT_ID":36581,"ELEMENT_SET_NO":999,"REV_AT_EPOCH":5813,"BSTAR":0,"MEAN_MOTION_DOT":1.39e-6,"MEAN_MOTION_DDOT":0},{"OBJECT_NAME":"SES-3","OBJECT_ID":"2011-035A","EPOCH":"2026-04-05T01:59:17.852928","MEAN_MOTION":1.00272304,"ECCENTRICITY":0.00034199,"INCLINATION":1.1374,"RA_OF_ASC_NODE":83.8433,"ARG_OF_PERICENTER":296.083,"MEAN_ANOMALY":100.2815,"EPHEMERIS_TYPE":0,"CLASSIFICATION_TYPE":"U","NORAD_CAT_ID":37748,"ELEMENT_SET_NO":999,"REV_AT_EPOCH":5386,"BSTAR":0,"MEAN_MOTION_DOT":-1.0e-6,"MEAN_MOTION_DDOT":0},{"OBJECT_NAME":"ASTRA 1N","OBJECT_ID":"2011-041A","EPOCH":"2026-04-05T05:59:24.568224","MEAN_MOTION":1.00270097,"ECCENTRICITY":0.00051151,"INCLINATION":0.0889,"RA_OF_ASC_NODE":42.8187,"ARG_OF_PERICENTER":359.477,"MEAN_ANOMALY":260.2868,"EPHEMERIS_TYPE":0,"CLASSIFICATION_TYPE":"U","NORAD_CAT_ID":37775,"ELEMENT_SET_NO":999,"REV_AT_EPOCH":4379,"BSTAR":0,"MEAN_MOTION_DOT":1.21e-6,"MEAN_MOTION_DDOT":0}]
